[{"OBJECT_NAME":"DONGPO 01","OBJECT_ID":"2022-098K","EPOCH":"2026-03-09T22:32:02.713920","MEAN_MOTION":15.58468183,"ECCENTRICITY":0.00010694,"INCLINATION":97.5448,"RA_OF_ASC_NODE":193.56,"ARG_OF_PERICENTER":224.5163,"MEAN_ANOMALY":135.6007,"EPHEMERIS_TYPE":0,"CLASSIFICATION_TYPE":"U","NORAD_CAT_ID":53453,"ELEMENT_SET_NO":999,"REV_AT_EPOCH":19923,"BSTAR":0.00090167722,"MEAN_MOTION_DOT":0.00069105,"MEAN_MOTION_DDOT":0},{"OBJECT_NAME":"PLATERO","OBJECT_ID":"2023-174G","EPOCH":"2026-03-09T19:23:55.165632","MEAN_MOTION":15.56496831,"ECCENTRICITY":0.0006112,"INCLINATION":97.3931,"RA_OF_ASC_NODE":162.7692,"ARG_OF_PERICENTER":118.0028,"MEAN_ANOMALY":242.1845,"EPHEMERIS_TYPE":0,"CLASSIFICATION_TYPE":"U","NORAD_CAT_ID":58262,"ELEMENT_SET_NO":999,"REV_AT_EPOCH":13069,"BSTAR":0.00046244515,"MEAN_MOTION_DOT":0.0003276,"MEAN_MOTION_DDOT":0}]
